{"type": "FeatureCollection", "features": [ {"type": "Feature", "properties": {"norad_id": 17070, "name": "POLAR BEAR", "group": "nnss", "lat": -1.0297799585777265, "lon": 3.994031593419806, "alt_km": 963.190073368527, "timestamp": "2025-12-07T09:35:10.058984+00:00", "meta": {"OBJECT_NAME": "POLAR BEAR", "OBJECT_ID": "1986-088A", "EPOCH": "2025-12-06T15:35:55.464000", "MEAN_MOTION": 13.75249012, "ECCENTRICITY": 0.00405694, "INCLINATION": 89.6179, "RA_OF_ASC_NODE": 184.0173, "ARG_OF_PERICENTER": 136.9422, "MEAN_ANOMALY": 295.3265, "EPHEMERIS_TYPE": 0, "CLASSIFICATION_TYPE": "U", "NORAD_CAT_ID": 17070, "ELEMENT_SET_NO": 999, "REV_AT_EPOCH": 95895, "BSTAR": 0.00017232039, "MEAN_MOTION_DOT": 1.78e-06, "MEAN_MOTION_DDOT": 0}, "tle": {"line1": "1 17070U 86088A   25340.64994750  .00000178  00000+0  17232-3 0  9996", "line2": "2 17070  89.6179 184.0173 0040569 136.9422 295.3265 13.75249012958954"}}, "geometry": {"type": "Point", "coordinates": [3.994031593419806, -1.0297799585777265]}}, {"type": "Feature", "properties": {"norad_id": 18361, "name": "OSCAR 27", "group": "nnss", "lat": -58.45082126616247, "lon": 79.68235038547644, "alt_km": 1062.018469482975, "timestamp": "2025-12-07T09:35:10.058995+00:00", "meta": {"OBJECT_NAME": "OSCAR 27", "OBJECT_ID": "1987-080A", "EPOCH": "2025-12-06T19:35:30.365088", "MEAN_MOTION": 13.4490481, "ECCENTRICITY": 0.01025456, "INCLINATION": 90.3742, "RA_OF_ASC_NODE": 79.0507, "ARG_OF_PERICENTER": 240.9889, "MEAN_ANOMALY": 118.0952, "EPHEMERIS_TYPE": 0, "CLASSIFICATION_TYPE": "U", "NORAD_CAT_ID": 18361, "ELEMENT_SET_NO": 999, "REV_AT_EPOCH": 87477, "BSTAR": 0.00029594555, "MEAN_MOTION_DOT": 1.87e-06, "MEAN_MOTION_DDOT": 0}, "tle": {"line1": "1 18361U 87080A   25340.81632367  .00000187  00000+0  29595-3 0  9990", "line2": "2 18361  90.3742  79.0507 0102545 240.9889 118.0952 13.44904810874774"}}, "geometry": {"type": "Point", "coordinates": [79.68235038547644, -58.45082126616247]}}, {"type": "Feature", "properties": {"norad_id": 18362, "name": "OSCAR 29", "group": "nnss", "lat": -37.50419792963849, "lon": 79.81917441278594, "alt_km": 1059.6557391974275, "timestamp": "2025-12-07T09:35:10.059005+00:00", "meta": {"OBJECT_NAME": "OSCAR 29", "OBJECT_ID": "1987-080B", "EPOCH": "2025-12-06T20:04:36.218784", "MEAN_MOTION": 13.44446745, "ECCENTRICITY": 0.01037345, "INCLINATION": 90.3754, "RA_OF_ASC_NODE": 79.5098, "ARG_OF_PERICENTER": 264.3388, "MEAN_ANOMALY": 214.4398, "EPHEMERIS_TYPE": 0, "CLASSIFICATION_TYPE": "U", "NORAD_CAT_ID": 18362, "ELEMENT_SET_NO": 999, "REV_AT_EPOCH": 87430, "BSTAR": 0.00026415625, "MEAN_MOTION_DOT": 1.66e-06, "MEAN_MOTION_DDOT": 0}, "tle": {"line1": "1 18362U 87080B   25340.83653031  .00000166  00000+0  26416-3 0  9990", "line2": "2 18362  90.3754  79.5098 0103734 264.3388 214.4398 13.44446745874305"}}, "geometry": {"type": "Point", "coordinates": [79.81917441278594, -37.50419792963849]}}, {"type": "Feature", "properties": {"norad_id": 19070, "name": "OSCAR 23", "group": "nnss", "lat": 55.328214031978014, "lon": 15.761649965621817, "alt_km": 1256.912457081662, "timestamp": "2025-12-07T09:35:10.059016+00:00", "meta": {"OBJECT_NAME": "OSCAR 23", "OBJECT_ID": "1988-033A", "EPOCH": "2025-12-06T22:42:16.720704", "MEAN_MOTION": 13.27785888, "ECCENTRICITY": 0.0189043, "INCLINATION": 90.3218, "RA_OF_ASC_NODE": 16.213, "ARG_OF_PERICENTER": 196.0491, "MEAN_ANOMALY": 214.784, "EPHEMERIS_TYPE": 0, "CLASSIFICATION_TYPE": "U", "NORAD_CAT_ID": 19070, "ELEMENT_SET_NO": 999, "REV_AT_EPOCH": 82176, "BSTAR": 0.00026892757, "MEAN_MOTION_DOT": 1.42e-06, "MEAN_MOTION_DDOT": 0}, "tle": {"line1": "1 19070U 88033A   25340.94602686  .00000142  00000+0  26893-3 0  9991", "line2": "2 19070  90.3218  16.2130 0189043 196.0491 214.7840 13.27785888821767"}}, "geometry": {"type": "Point", "coordinates": [15.761649965621817, 55.328214031978014]}}, {"type": "Feature", "properties": {"norad_id": 19071, "name": "OSCAR 32", "group": "nnss", "lat": 16.638677287570072, "lon": -163.54492274163093, "alt_km": 1020.4575652457543, "timestamp": "2025-12-07T09:35:10.059027+00:00", "meta": {"OBJECT_NAME": "OSCAR 32", "OBJECT_ID": "1988-033B", "EPOCH": "2025-12-06T20:58:38.516160", "MEAN_MOTION": 13.27952901, "ECCENTRICITY": 0.01878652, "INCLINATION": 90.3222, "RA_OF_ASC_NODE": 16.3423, "ARG_OF_PERICENTER": 183.0967, "MEAN_ANOMALY": 350.713, "EPHEMERIS_TYPE": 0, "CLASSIFICATION_TYPE": "U", "NORAD_CAT_ID": 19071, "ELEMENT_SET_NO": 999, "REV_AT_EPOCH": 82187, "BSTAR": 0.00020299804, "MEAN_MOTION_DOT": 1.09e-06, "MEAN_MOTION_DDOT": 0}, "tle": {"line1": "1 19071U 88033B   25340.87405690  .00000109  00000+0  20300-3 0  9990", "line2": "2 19071  90.3222  16.3423 0187865 183.0967 350.7130 13.27952901821870"}}, "geometry": {"type": "Point", "coordinates": [-163.54492274163093, 16.638677287570072]}}, {"type": "Feature", "properties": {"norad_id": 19223, "name": "NOVA 2", "group": "nnss", "lat": 82.17405451032747, "lon": -101.8149606243218, "alt_km": 1156.7706322679633, "timestamp": "2025-12-07T09:35:10.059037+00:00", "meta": {"OBJECT_NAME": "NOVA 2", "OBJECT_ID": "1988-052A", "EPOCH": "2025-12-06T21:00:33.391872", "MEAN_MOTION": 13.22934949, "ECCENTRICITY": 0.00310667, "INCLINATION": 89.9871, "RA_OF_ASC_NODE": 78.2796, "ARG_OF_PERICENTER": 32.72, "MEAN_ANOMALY": 90.4569, "EPHEMERIS_TYPE": 0, "CLASSIFICATION_TYPE": "U", "NORAD_CAT_ID": 19223, "ELEMENT_SET_NO": 999, "REV_AT_EPOCH": 80870, "BSTAR": 0.00030066884, "MEAN_MOTION_DOT": 1.35e-06, "MEAN_MOTION_DDOT": 0}, "tle": {"line1": "1 19223U 88052A   25340.87538648  .00000135  00000+0  30067-3 0  9990", "line2": "2 19223  89.9871  78.2796 0031066  32.7200  90.4569 13.22934949808702"}}, "geometry": {"type": "Point", "coordinates": [-101.8149606243218, 82.17405451032747]}}, {"type": "Feature", "properties": {"norad_id": 19419, "name": "OSCAR 25", "group": "nnss", "lat": 25.227417909534758, "lon": -159.75682257345383, "alt_km": 1118.4196392008207, "timestamp": "2025-12-07T09:35:10.059047+00:00", "meta": {"OBJECT_NAME": "OSCAR 25", "OBJECT_ID": "1988-074A", "EPOCH": "2025-12-06T15:31:01.635744", "MEAN_MOTION": 13.42621671, "ECCENTRICITY": 0.00942628, "INCLINATION": 90.0351, "RA_OF_ASC_NODE": 20.224, "ARG_OF_PERICENTER": 263.541, "MEAN_ANOMALY": 215.3416, "EPHEMERIS_TYPE": 0, "CLASSIFICATION_TYPE": "U", "NORAD_CAT_ID": 19419, "ELEMENT_SET_NO": 999, "REV_AT_EPOCH": 82558, "BSTAR": 0.00027999052, "MEAN_MOTION_DOT": 1.71e-06, "MEAN_MOTION_DDOT": 0}, "tle": {"line1": "1 19419U 88074A   25340.64654671  .00000171  00000+0  27999-3 0  9991", "line2": "2 19419  90.0351  20.2240 0094262 263.5410 215.3416 13.42621671825581"}}, "geometry": {"type": "Point", "coordinates": [-159.75682257345383, 25.227417909534758]}}, {"type": "Feature", "properties": {"norad_id": 19420, "name": "OSCAR 31", "group": "nnss", "lat": 40.747490673470274, "lon": 20.543983689365856, "alt_km": 1153.1957393849234, "timestamp": "2025-12-07T09:35:10.059057+00:00", "meta": {"OBJECT_NAME": "OSCAR 31", "OBJECT_ID": "1988-074B", "EPOCH": "2025-12-06T21:44:07.533600", "MEAN_MOTION": 13.42583215, "ECCENTRICITY": 0.00925313, "INCLINATION": 90.0368, "RA_OF_ASC_NODE": 20.5739, "ARG_OF_PERICENTER": 256.8957, "MEAN_ANOMALY": 278.1525, "EPHEMERIS_TYPE": 0, "CLASSIFICATION_TYPE": "U", "NORAD_CAT_ID": 19420, "ELEMENT_SET_NO": 999, "REV_AT_EPOCH": 82572, "BSTAR": 0.00022722958, "MEAN_MOTION_DOT": 1.4e-06, "MEAN_MOTION_DDOT": 0}, "tle": {"line1": "1 19420U 88074B   25340.90564275  .00000140  00000+0  22723-3 0  9998", "line2": "2 19420  90.0368  20.5739 0092531 256.8957 278.1525 13.42583215825720"}}, "geometry": {"type": "Point", "coordinates": [20.543983689365856, 40.747490673470274]}}]}